CUBEBUG-2 (LO-74)       
1 39440U 13066AA  26170.74260953  .00004224  00000+0  39108-3 0  9993
2 39440  97.8909 119.7314 0058222  20.8398 339.5176 14.93781455677370
FUNCUBE-1 (AO-73)       
1 39444U 13066AE  26170.37665816  .00004964  00000+0  30928-3 0  9995
2 39444  97.8280 141.8681 0035834 193.1795 166.8500 15.09511616679998
UWE-3                   
1 39446U 13066AG  26170.82240804  .00003743  00000+0  32306-3 0  9999
2 39446  97.8700 126.9136 0047239 312.3299  47.3925 14.97042673677970
UNISAT-6                
1 40012U 14033C   26170.35202284  .00002126  00000+0  23171-3 0  9997
2 40012  97.7885 323.0255 0046159  62.3770 298.2123 14.88254745646486
DUCHIFAT-1              
1 40021U 14033M   26170.64352405  .00095101  00000+0  96085-3 0  9999
2 40021  98.0454 230.1491 0002569 110.7852 249.3681 15.65018762656130
QB50P1                  
1 40025U 14033R   26170.25905701  .00006785  00000+0  33444-3 0  9993
2 40025  98.0964 181.5504 0008005 207.6997 152.3810 15.18285787653349
LILACSAT-2              
1 40908U 15049K   26170.85213453  .00014346  00000+0  24404-3 0  9991
2 40908  97.4640 207.7953 0005683 232.3883 127.6853 15.51517172596161
FOX-1A (AO-85)          
1 40967U 15058D   26170.76723961  .00001694  00000+0  16076-3 0  9994
2 40967  64.7745 270.9655 0130570  55.6095 305.7282 14.90978964113954
CAS-2T & KS-1Q          
1 41847U 16066G   26170.73400531  .00001315  00000+0  19133-3 0  9991
2 41847  98.3821 246.4413 0342865 121.7773 241.7303 14.44701664505161
RADFXSAT (FOX-1B)       
1 43017U 17073E   26170.58926228  .00006334  00000+0  27795-3 0  9999
2 43017  97.4695  37.7543 0149369 320.8671  38.1830 15.12745467465757
DIWATA-2B               
1 43678U 18084H   26170.83737839  .00002089  00000+0  17098-3 0  9999
2 43678  98.1185   7.1604 0012724 161.6298 198.5387 15.00462775416615
ES'HAIL 2               
1 43700U 18090A   26170.75551398  .00000138  00000+0  00000+0 0  9991
2 43700   0.0135  53.5670 0001779  70.9931  81.1783  1.00272144 27709
FOX-1CLIFF (AO-95)      
1 43770U 18099N   26170.69934198  .00009300  00000+0  35595-3 0  9994
2 43770  97.4377 230.9364 0007708 348.2880  11.8178 15.26755639413601
ITASAT                  
1 43786U 18099AE  26170.65654309  .00004921  00000+0  23743-3 0  9996
2 43786  97.4023 222.1190 0011828 351.5334   8.5699 15.19082149413281
JY1SAT (JO-97)          
1 43803U 18099AX  26170.70553725  .00013869  00000+0  42740-3 0  9991
2 43803  97.4125 233.5484 0004492 250.8022 109.2735 15.33718827414017
UWE-4                   
1 43880U 18111E   26170.73909039  .00028000  00000+0  56934-3 0  9990
2 43880  97.5852  99.2477 0005068 330.7949  29.3015 15.46259003411172
TIANYAN 01              
1 44881U 19093C   26170.80456742  .00000167  00000+0  24813-4 0  9994
2 44881  97.7528 242.9728 0015040  79.1516 281.1392 14.86520390351809
RS-44 & BREEZE-KM R/B   
1 44909U 19096E   26170.50699800  .00000010  00000+0 -97910-5 0  9996
2 44909  82.5220 338.1631 0218257 138.7616 223.0205 12.79748873302644
SALSAT                  
1 46495U 20068K   26170.82728722  .00006419  00000+0  22493-3 0  9990
2 46495  97.8854 174.0526 0007893 297.0230  63.0203 15.29831081315760
XW-3 (CAS-9)            
1 50466U 21131B   26170.83137712  .00000450  00000+0  15264-3 0  9996
2 50466  98.4983 263.2068 0005403  90.7607 269.4201 14.41359619235492
GREENCUBE (IO-117)      
1 53109U 22080E   26170.67448081 -.00000003  00000+0  00000+0 0  9996
2 53109  70.1442 297.3799 0008827 289.0639  70.9064  6.42583159 92220
UMKA 1 (RS40S)          
1 57172U 23091G   26170.85733329  .00004983  00000+0  22835-3 0  9999
2 57172  97.5046 229.5444 0014324 109.3771 250.9014 15.20843546164412
CUBESX-HSE 3 (RS42S)    
1 57178U 23091N   26170.85313227  .00011296  00000+0  37566-3 0  9998
2 57178  97.5086 236.4742 0011962  86.5917 273.6692 15.31270695164834
MONITOR-3 (RS58S)       
1 57180U 23091Q   26170.81801916  .00008464  00000+0  31291-3 0  9996
2 57180  97.5078 234.2836 0013060  92.7120 267.5615 15.27885341164690
MONITOR-4 (RS57S)       
1 57182U 23091S   26170.86241804  .00009000  00000+0  33168-3 0  9999
2 57182  97.5072 234.2997 0013060  92.9524 267.3210 15.27972148164707
MONITOR-2 (RS39S)       
1 57184U 23091U   26170.81606228  .00003760  00000+0  18299-3 0  9996
2 57184  97.5067 229.0822 0012779 103.1643 257.1018 15.18930786164351
SVYATOBOR 1 (RS60S)     
1 57187U 23091X   26170.81226738  .00007279  00000+0  27999-3 0  9999
2 57187  97.5084 234.6440 0010832  86.6942 273.5536 15.26651996164715
VIZARD-METEO (RS38S)    
1 57189U 23091Z   26170.81850955  .00014098  00000+0  40266-3 0  9994
2 57189  97.5087 240.3566 0008105  69.9278 290.2837 15.36095446165094
POLYTECH-UNIVERSE 3 (R*)
1 57191U 23091AB  26170.84291605  .00004358  00000+0  21003-3 0  9997
2 57191  97.5043 228.6133 0016990 118.3613 241.9337 15.19133845164354
UTMN 2 (RS27S)          
1 57203U 23091AP  26170.80395189  .00010533  00000+0  34185-3 0  9996
2 57203  97.5083 238.0615 0009136  76.0306 284.1951 15.32104727164943
